[
  {
    "name": "dslink-java-snmp",
    "displayName": "SNMP",
    "type": "Java",
    "automated": {
      "repository": "https://github.com/IOT-DSA/dslink-java-snmp.git",
      "zip": "snmp.zip"
    },
    "zip": "https://iot-dsa.github.io/links/files/snmp.zip",
    "description": "Simple Network Management Protocol",
    "category": "Data Acquisition"
  },
  {
    "name": "dslink-dart-earthquakes",
    "displayName": "Earthquakes",
    "type": "Dart",
    "automated": {
      "repository": "https://github.com/IOT-DSA/dslink-dart-earthquakes.git",
      "zip": "earthquakes.zip"
    },
    "zip": "https://iot-dsa.github.io/links/files/earthquakes.zip",
    "description": "Get Hourly Updates about Earthquakes Worldwide",
    "category": "Misc."
  },
  {
    "name": "dslink-dart-wemo",
    "displayName": "WeMo",
    "type": "Dart",
    "automated": {
      "repository": "https://github.com/IOT-DSA/dslink-dart-wemo.git",
      "zip": "wemo.zip"
    },
    "zip": "https://iot-dsa.github.io/links/files/wemo.zip",
    "description": "Interact with WeMo Devices",
    "category": "Data Acquisition"
  },
  {
    "name": "dslink-dart-mailer",
    "displayName": "Email",
    "type": "Dart",
    "automated": {
      "repository": "https://github.com/IOT-DSA/dslink-dart-mailer.git",
      "zip": "mailer.zip"
    },
    "zip": "https://iot-dsa.github.io/links/files/mailer.zip",
    "description": "Send Emails",
    "category": "Notifications"
  },
  {
    "name": "dslink-dart-twilio",
    "displayName": "Twilio",
    "type": "Dart",
    "automated": {
      "repository": "https://github.com/IOT-DSA/dslink-dart-twilio.git",
      "zip": "twilio.zip"
    },
    "zip": "https://iot-dsa.github.io/links/files/twilio.zip",
    "description": "Send Text Messages through Twilio",
    "category": "Notifications"
  },
  {
    "name": "dslink-dart-storage",
    "displayName": "Storage",
    "type": "Dart",
    "automated": {
      "repository": "https://github.com/IOT-DSA/dslink-dart-storage.git",
      "zip": "storage.zip"
    },
    "zip": "https://iot-dsa.github.io/links/files/storage.zip",
    "description": "Key-Value Storage System",
    "category": "Storage"
  },
  {
    "name": "dslink-dart-mongodb",
    "displayName": "MongoDB",
    "type": "Dart",
    "automated": {
      "repository": "https://github.com/IOT-DSA/dslink-dart-mongodb.git",
      "zip": "mongodb.zip"
    },
    "zip": "https://iot-dsa.github.io/links/files/mongodb.zip",
    "description": "Access MongoDB through DSA",
    "category": "Data Acquisition"
  },
  {
    "name": "dslink-dart-dgapi",
    "displayName": "DGAPI",
    "type": "Dart",
    "automated": {
      "repository": "https://github.com/IOT-DSA/dslink-dart-dgapi.git",
      "zip": "dgapi.zip"
    },
    "zip": "https://iot-dsa.github.io/links/files/dgapi.zip",
    "description": "Access DGAPI through DSA",
    "category": "Data Acquisition"
  },
  {
    "name": "dslink-dart-webctrl",
    "displayName": "WebCtrl",
    "type": "Dart",
    "automated": {
      "repository": "https://github.com/IOT-DSA/dslink-dart-webctrl.git",
      "zip": "webctrl.zip"
    },
    "zip": "https://iot-dsa.github.io/links/files/webctrl.zip",
    "description": "Access WebCtrl from DSA",
    "category": "Data Acquisition"
  },
  {
    "name": "dslink-java-mqtt",
    "displayName": "MQTT",
    "type": "Java",
    "automated": {
      "repository": "https://github.com/IOT-DSA/dslink-java-mqtt.git",
      "zip": "mqtt.zip"
    },
    "zip": "https://iot-dsa.github.io/links/files/mqtt.zip",
    "description": "Communicate with the MQTT Protocol",
    "category": "Data Acquisition"
  },
  {
    "name": "dslink-java-haystack",
    "displayName": "Haystack",
    "type": "Java",
    "automated": {
      "repository": "https://github.com/IOT-DSA/dslink-java-haystack.git",
      "zip": "haystack.zip"
    },
    "zip": "https://iot-dsa.github.io/links/files/haystack.zip",
    "description": "Access Haystack from DSA",
    "category": "Data Acquisition"
  },
  {
    "name": "dslink-java-sedona",
    "displayName": "Sedona",
    "type": "Java",
    "automated": {
      "repository": "https://github.com/IOT-DSA/dslink-java-sedona.git",
      "zip": "sedona.zip"
    },
    "zip": "https://iot-dsa.github.io/links/files/sedona.zip",
    "description": "Access Sedona through DSA",
    "category": "Data Acquisition"
  },
  {
    "name": "dslink-javascript-onvif",
    "displayName": "Onvif",
    "type": "JavaScript",
    "automated": {
      "repository": "https://github.com/IOT-DSA/dslink-javascript-onvif.git",
      "zip": "onvif.zip"
    },
    "zip": "https://iot-dsa.github.io/links/files/onvif.zip",
    "description": "Control and view Onvif IP Cameras",
    "category": "Devices"
  },
  {
    "name": "dslink-dart-youtube",
    "displayName": "YouTube",
    "type": "Dart",
    "automated": {
      "repository": "https://github.com/IOT-DSA/dslink-dart-youtube.git",
      "zip": "youtube.zip"
    },
    "zip": "https://iot-dsa.github.io/links/files/youtube.zip",
    "description": "Access YouTube Data from DSA",
    "category": "Social Media"
  },
  {
    "name": "dslink-java-twitter",
    "displayName": "Twitter",
    "type": "Java",
    "automated": {
      "repository": "https://github.com/IOT-DSA/dslink-java-twitter.git",
      "zip": "twitter.zip"
    },
    "zip": "https://iot-dsa.github.io/links/files/twitter.zip",
    "description": "Access Twitter Data from DSA",
    "category": "Social Media"
  },
  {
    "name": "dslink-java-googleplus",
    "displayName": "Google+",
    "type": "Java",
    "automated": {
      "repository": "https://github.com/IOT-DSA/dslink-java-googleplus.git",
      "zip": "googleplus.zip"
    },
    "zip": "https://iot-dsa.github.io/links/files/googleplus.zip",
    "description": "Access Google+ Data from DSA",
    "category": "Social Media"
  },
  {
    "name": "dslink-java-modbus",
    "displayName": "Modbus",
    "type": "Java",
    "automated": {
      "repository": "https://github.com/IOT-DSA/dslink-java-modbus.git",
      "zip": "modbus.zip"
    },
    "zip": "https://iot-dsa.github.io/links/files/modbus.zip",
    "description": "Access Modbus from DSA",
    "category": "Data Acquisition"
  },
  {
    "name": "dslink-java-jdbc",
    "displayName": "JDBC",
    "type": "Java",
    "automated": {
      "repository": "https://github.com/IOT-DSA/dslink-java-jdbc.git",
      "zip": "jdbc.zip"
    },
    "zip": "https://iot-dsa.github.io/links/files/jdbc.zip",
    "description": "Work with Databases",
    "category": "Data Acquisition"
  },
  {
    "name": "dslink-dart-irc",
    "displayName": "IRC",
    "type": "Dart",
    "automated": {
      "repository": "https://github.com/IOT-DSA/dslink-dart-irc.git",
      "zip": "irc.zip"
    },
    "zip": "https://iot-dsa.github.io/links/files/irc.zip",
    "description": "Communicate with IRC",
    "category": "Communication"
  },
  {
    "name": "dslink-dart-slack",
    "displayName": "Slack",
    "type": "Dart",
    "automated": {
      "repository": "https://github.com/IOT-DSA/dslink-dart-slack.git",
      "zip": "slack.zip"
    },
    "zip": "https://iot-dsa.github.io/links/files/slack.zip",
    "description": "Access Slack from DSA",
    "category": "Communication"
  },
  {
    "name": "dslink-dart-host",
    "displayName": "Host",
    "type": "Dart",
    "automated": {
      "repository": "https://github.com/IOT-DSA/dslink-dart-host.git",
      "zip": "host.zip",
      "ignoreBuildScript": true
    },
    "zip": "https://iot-dsa.github.io/links/files/host.zip",
    "description": "Control Machines through DSA",
    "category": "System",
    "requires": [
      "linux",
      "mac"
    ]
  },
  {
    "name": "dslink-java-bacnet",
    "displayName": "BACnet",
    "type": "Java",
    "automated": {
      "repository": "https://github.com/IOT-DSA/dslink-java-bacnet.git",
      "zip": "bacnet.zip"
    },
    "zip": "https://iot-dsa.github.io/links/files/bacnet.zip",
    "description": "Interact with BACnet",
    "category": "Data Acquisition"
  },
  {
    "name": "dslink-java-splunk",
    "displayName": "Splunk",
    "type": "Java",
    "automated": {
      "repository": "https://github.com/IOT-DSA/dslink-java-splunk.git",
      "zip": "splunk.zip"
    },
    "zip": "https://iot-dsa.github.io/links/files/splunk.zip",
    "description": "Historian DSLink implementation for Splunk",
    "category": "Historian"
  },
  {
    "name": "dslink-java-etsdb",
    "displayName": "ETSDB",
    "type": "Java",
    "automated": {
      "repository": "https://github.com/IOT-DSA/dslink-java-etsdb.git",
      "zip": "etsdb.zip"
    },
    "zip": "https://iot-dsa.github.io/links/files/etsdb.zip",
    "description": "Historian DSLink implementation for ETSDB",
    "category": "Historian"
  },
  {
    "name": "dslink-java-enocean",
    "displayName": "Enocean",
    "type": "Java",
    "automated": {
      "repository": "https://github.com/IOT-DSA/dslink-java-enocean.git",
      "zip": "enocean.zip"
    },
    "zip": "https://iot-dsa.github.io/links/files/enocean.zip",
    "description": "DSLink implementation for Enocean",
    "category": "Data Acquisition"
  },
  {
    "name": "dslink-dart-system",
    "displayName": "System",
    "type": "Dart",
    "automated": {
      "repository": "https://github.com/IOT-DSA/dslink-dart-system.git",
      "zip": "system.zip",
      "ignoreBuildScript": true
    },
    "zip": "https://iot-dsa.github.io/links/files/system.zip",
    "description": "Get Live Statistics about a Machine",
    "category": "System",
    "requires": [
      "linux",
      "mac"
    ]
  },
  {
    "name": "dslink-dart-weather",
    "displayName": "Weather",
    "type": "Dart",
    "automated": {
      "repository": "https://github.com/IOT-DSA/dslink-dart-weather.git",
      "zip": "weather.zip",
      "ignoreBuildScript": true
    },
    "zip": "https://iot-dsa.github.io/links/files/weather.zip",
    "description": "Get Weather Data",
    "category": "Data Acquisition"
  }
]
